COSMOS 2534 [GLONASS-M] 
1 44299U 19030A   26175.51251176  .00000105  00000+0  00000+0 0  9994
2 44299  64.3690 192.3697 0013462 274.9296  83.9383  2.13102365 55074
BEIDOU-3 IGSO-2         
1 44337U 19035A   26176.67713823 -.00000065  00000+0  00000+0 0  9998
2 44337  55.2491 158.7880 0039503 216.5820 261.6369  1.00264102 25758
NAVSTAR 78 (USA 293)    
1 44506U 19056A   26176.57429719 -.00000105  00000+0  00000+0 0  9991
2 44506  55.6328 330.8088 0062392 197.6754 125.8238  2.00570153 50233
BEIDOU-3 M24            
1 44542U 19061A   26176.29677472  .00000103  00000+0  00000+0 0  9994
2 44542  54.3964 182.4538 0008489 358.5416   1.4883  1.86229185 45942
BEIDOU-3 M23            
1 44543U 19061B   26174.55218917  .00000102  00000+0  00000+0 0  9996
2 44543  54.3954 182.4810 0005823 338.7823 203.1503  1.86227312 45913
EUTELSAT 5 WEST B       
1 44624U 19067A   26176.73785911 -.00000032  00000+0  00000+0 0  9990
2 44624   0.0622   3.3854 0003398  90.7742  80.3376  1.00271458 24525
BEIDOU-3 M22            
1 44793U 19078A   26173.98886353 -.00000107  00000+0  00000+0 0  9998
2 44793  53.9301 299.6233 0006249  51.2109 308.8401  1.86227077 44757
BEIDOU-3 M21            
1 44794U 19078B   26171.44396153 -.00000092  00000+0  00000+0 0  9995
2 44794  53.9054 299.6746 0003921  48.8810 311.1504  1.86227692 44717
COSMOS 2544 [GLONASS-M] 
1 44850U 19088A   26176.00679323 -.00000067  00000+0  00000+0 0  9991
2 44850  65.5700  73.4696 0012923 257.9758 101.9130  2.13102912 50888
BEIDOU-3 M19            
1 44864U 19090A   26175.25055926 -.00000095  00000+0  00000+0 0  9993
2 44864  56.5650  62.5564 0017586 297.6479 291.8664  1.86231520 44365
BEIDOU-3 M20            
1 44865U 19090B   26175.11236480 -.00000095  00000+0  00000+0 0  9995
2 44865  56.5667  62.5955 0015370 311.9218 274.5279  1.86231501 44345
BEIDOU-3 G2             
1 45344U 20017A   26176.82603044 -.00000133  00000+0  00000+0 0  9995
2 45344   2.8820  47.4925 0002487  37.4477 206.4801  1.00272030 23344
COSMOS 2545 [GLONASS-M] 
1 45358U 20018A   26173.38622942 -.00000076  00000+0  00000+0 0  9993
2 45358  64.3518 312.2361 0008551 229.7005 130.2180  2.13102345 48778
BEIDOU-3 G3             
1 45807U 20040A   26176.83209714 -.00000345  00000+0  00000+0 0  9997
2 45807   2.4689  67.4804 0002643 327.3724 289.1907  1.00275033 22154
NAVSTAR 79 (USA 304)    
1 45854U 20041A   26175.71392622 -.00000091  00000+0  00000+0 0  9995
2 45854  56.6750  28.6507 0064456 204.5351 155.8006  2.00558689 44196
GALAXY 30 (G-30)        
1 46114U 20056C   26175.71600622  .00000046  00000+0  00000+0 0  9992
2 46114   0.0130  51.5985 0002220  38.3382 315.6757  1.00270732 21366
COSMOS 2547 [GLONASS-K] 
1 46805U 20075A   26174.04506766  .00000094  00000+0  00000+0 0  9992
2 46805  64.5998 192.2800 0009389 239.8936 120.0622  2.13100075 44030
NAVSTAR 80 (USA 309)    
1 46826U 20078A   26176.74568558  .00000082  00000+0  00000+0 0  9991
2 46826  53.9789 210.4312 0073802 207.4080 154.5186  2.00565119 41681
NAVSTAR 81 (USA 319)    
1 48859U 21054A   26176.49777726 -.00000106  00000+0  00000+0 0  9993
2 48859  55.1703 332.1251 0025649 228.3252 140.8922  2.00568759 36922
QZS-1R (MICHIBIKI-1R)   
1 49336U 21096A   26176.62087218 -.00000314  00000+0  00000+0 0  9996
2 49336  37.4786  79.4571 0755538 271.9543 279.2646  1.00253341 17091
GSAT0223 (GALILEO 27)   
1 49809U 21116A   26174.44047914 -.00000098  00000+0  00000+0 0  9990
2 49809  57.1590 341.5051 0001600 183.5383 174.0725  1.70476308 28288
GSAT0224 (GALILEO 28)   
1 49810U 21116B   26176.61813146 -.00000097  00000+0  00000+0 0  9990
2 49810  57.1582 341.4455 0001373 160.1269 206.5880  1.70476480 28351
COSMOS 2557 [GLONASS-K] 
1 52984U 22075A   26173.27080705 -.00000076  00000+0  00000+0 0  9994
2 52984  64.2952 314.3058 0010303 273.7574  86.1177  2.13102021 30829
COSMOS 2559 [GLONASS-K] 
1 54031U 22130A   26174.96748302 -.00000084  00000+0  00000+0 0  9991
2 54031  64.2669 314.3295 0012699 178.7771 181.2176  2.13101763 28831
COSMOS 2564 [GLONASS-M] 
1 54377U 22161A   26176.21851417  .00000108  00000+0  00000+0 0  9996
2 54377  64.7424 192.4450 0012253 225.0165 134.9378  2.13102109 27805
NAVSTAR 82 (USA 343)    
1 55268U 23009A   26175.93576141  .00000055  00000+0  00000+0 0  9995
2 55268  55.1239 148.2141 0006333 317.2838  44.5224  2.00571146 25409
BEIDOU-3 G4             
1 56564U 23066A   26176.76665537 -.00000270  00000+0  00000+0 0  9998
2 56564   0.4772 333.7152 0004747 175.6968 180.5424  1.00271519 11479
NVS-01 (IRNSS-1J)       
1 56759U 23076A   26176.83582382 -.00000322  00000+0  00000+0 0  9997
2 56759   2.1457 243.9460 0002833  13.6257  86.8230  1.00275333 11206
COSMOS 2569 [GLONASS-K2]
1 57517U 23114A   26176.23081654 -.00000067  00000+0  00000+0 0  9999
2 57517  65.3066  72.3492 0010356 296.6685  63.2611  2.13103816 22432
BEIDOU-3 M28            
1 58654U 23207A   26175.81668910 -.00000096  00000+0  00000+0 0  9996
2 58654  55.7594  62.0455 0003030 351.9089   8.1238  1.86229863 16989
BEIDOU-3 M26            
1 58655U 23207B   26176.15114615 -.00000094  00000+0  00000+0 0  9991
2 58655  55.7619  62.0208 0002738 322.0424  37.9767  1.86229846 16977
